OBJECT_NAME,OBJECT_ID,EPOCH,MEAN_MOTION,ECCENTRICITY,INCLINATION,RA_OF_ASC_NODE,ARG_OF_PERICENTER,MEAN_ANOMALY,EPHEMERIS_TYPE,CLASSIFICATION_TYPE,NORAD_CAT_ID,ELEMENT_SET_NO,REV_AT_EPOCH,BSTAR,MEAN_MOTION_DOT,MEAN_MOTION_DDOT
QIANFAN-172,2026-124H,2026-06-27T06:01:17.104224,14.19639772,.00034166,88.9984,0.8917,134.6174,225.5295,0,U,69389,999,324,.43908065E-4,.107E-5,0
QIANFAN-173,2026-124J,2026-06-27T05:48:52.882272,14.20511132,.00036336,88.9984,0.8905,126.3506,233.8020,0,U,69390,999,324,.44601363E-4,.11E-5,0
QIANFAN-174,2026-124K,2026-06-27T05:40:46.617888,14.20879818,.00038823,88.9984,0.8896,131.7718,228.3805,0,U,69391,999,324,.51864654E-4,.127E-5,0
QIANFAN-175,2026-124L,2026-06-27T05:35:36.121344,14.21341182,.0004524,88.9983,0.8890,144.6611,215.4880,0,U,69392,999,324,.45212426E-4,.113E-5,0
QIANFAN-176,2026-124M,2026-06-27T05:28:13.831968,14.21842500,.00034623,88.9983,0.8883,147.7604,212.3800,0,U,69393,999,324,.4653802E-4,.117E-5,0
QIANFAN-177,2026-124N,2026-06-27T05:16:37.221600,14.22731887,.00044921,88.9984,0.8870,125.3455,234.8157,0,U,69394,999,324,.44050744E-4,.113E-5,0
QIANFAN-178,2026-124P,2026-06-27T05:22:09.479712,14.22275530,.00038241,88.9983,0.8876,134.4451,225.7054,0,U,69395,999,324,.47919214E-4,.121E-5,0
QIANFAN-179,2026-124Q,2026-06-27T05:10:53.088672,14.23098577,.00038161,88.9983,0.8863,130.6491,229.5033,0,U,69396,999,324,.46194367E-4,.119E-5,0
QIANFAN-180,2026-124R,2026-06-27T05:05:04.404192,14.23620243,.00041237,88.9983,0.8858,140.2582,219.8913,0,U,69397,999,324,.46465789E-4,.12E-5,0
QIANFAN-181,2026-124S,2026-06-27T05:08:18.487968,14.16650476,.00029542,88.9983,0.9048,105.8445,254.3070,0,U,69398,999,323,.43886503E-4,.102E-5,0
QIANFAN-182,2026-124T,2026-06-27T06:15:32.587776,14.18739860,.00032433,88.9984,0.8933,125.5607,234.5885,0,U,69399,999,324,.49356553E-4,.117E-5,0
QIANFAN-183,2026-125A,2026-06-27T07:12:54.727488,14.16465901,.00153412,88.9953,279.3052,142.8011,217.4244,0,U,69401,999,313,.17232425E-3,.357E-5,0
QIANFAN-184,2026-125B,2026-06-27T07:00:59.033952,14.16886005,.001623,88.9954,279.3042,137.1953,223.0502,0,U,69402,999,313,.18635914E-3,.388E-5,0
QIANFAN-185,2026-125C,2026-06-27T07:08:24.756864,14.16090758,.00170596,88.9955,279.3048,137.7295,222.5211,0,U,69403,999,313,.18095973E-3,.372E-5,0
QIANFAN-186,2026-125D,2026-06-27T06:49:02.879904,14.17436868,.00155227,88.9955,279.3029,138.4872,221.7499,0,U,69404,999,313,.18597947E-3,.391E-5,0
QIANFAN-187,2026-125E,2026-06-27T06:37:27.090336,14.18347538,.00160288,88.9954,279.3015,139.5775,220.6608,0,U,69405,999,313,.18055015E-3,.387E-5,0
QIANFAN-188,2026-125F,2026-06-27T06:22:57.999648,14.19439830,.00159958,88.9954,279.2999,143.0460,217.1835,0,U,69406,999,313,.18333431E-3,.4E-5,0
QIANFAN-189,2026-125G,2026-06-27T06:28:53.774112,14.18758776,.00152495,88.9954,279.3007,140.4741,219.7563,0,U,69407,999,313,.1787806E-3,.386E-5,0
QIANFAN-190,2026-125H,2026-06-27T06:22:41.945664,14.19221838,.00160284,88.9955,279.3002,142.0940,218.1382,0,U,69408,999,313,.17637836E-3,.384E-5,0
QIANFAN-191,2026-125J,2026-06-27T06:09:30.749760,14.20093167,.00154356,88.9954,279.2986,140.9256,219.3052,0,U,69409,999,313,.18303174E-3,.405E-5,0
QIANFAN-192,2026-125K,2026-06-27T06:02:48.003072,14.20519198,.00162971,88.9955,279.2981,141.3146,218.9215,0,U,69410,999,313,.18745798E-3,.417E-5,0
QIANFAN-193,2026-125L,2026-06-27T07:35:49.288416,14.20961781,.00161932,88.9954,279.2891,141.4636,218.7714,0,U,69411,999,314,.18540453E-3,.416E-5,0
QIANFAN-194,2026-125M,2026-06-27T07:29:51.518112,14.21403552,.00154768,88.9954,279.2884,144.9925,215.2286,0,U,69412,999,313,.1857402E-3,.42E-5,0
QIANFAN-195,2026-125N,2026-06-27T07:24:17.711712,14.21800891,.00166785,88.9954,279.2879,143.7330,216.4995,0,U,69413,999,314,.18464194E-3,.421E-5,0
QIANFAN-196,2026-125P,2026-06-27T07:17:41.939232,14.22295989,.00167893,88.9955,279.2872,144.1719,216.0603,0,U,69414,999,314,.17847234E-3,.411E-5,0
QIANFAN-197,2026-125Q,2026-06-27T07:12:35.620128,14.22740441,.00150703,88.9954,279.2866,141.2014,219.0263,0,U,69415,999,313,.17764101E-3,.413E-5,0
QIANFAN-198,2026-125R,2026-06-27T07:18:58.862880,14.22067146,.00153823,88.9954,279.2873,140.6468,219.5844,0,U,69416,999,314,.18044479E-3,.414E-5,0
QIANFAN-199,2026-125S,2026-06-27T07:02:46.062816,14.23630681,.00170913,88.9954,279.2855,141.6667,218.5744,0,U,69417,999,314,.17835729E-3,.421E-5,0
QIANFAN-200,2026-125T,2026-06-27T06:14:59.165664,14.19640717,.00161242,88.9954,279.2992,139.8362,220.4023,0,U,69418,999,313,.1818686E-3,.399E-5,0
