QIANFAN-172             
1 69389U 26124H   26178.25089241  .00000107  00000+0  43908-4 0  9990
2 69389  88.9984   0.8917 0003416 134.6174 225.5295 14.19639772  3246
QIANFAN-173             
1 69390U 26124J   26178.24227873  .00000110  00000+0  44601-4 0  9991
2 69390  88.9984   0.8905 0003633 126.3506 233.8020 14.20511132  3242
QIANFAN-174             
1 69391U 26124K   26178.23665067  .00000127  00000+0  51865-4 0  9990
2 69391  88.9984   0.8896 0003882 131.7718 228.3805 14.20879818  3241
QIANFAN-175             
1 69392U 26124L   26178.23305696  .00000113  00000+0  45212-4 0  9994
2 69392  88.9983   0.8890 0004524 144.6611 215.4880 14.21341182  3243
QIANFAN-176             
1 69393U 26124M   26178.22793787  .00000117  00000+0  46538-4 0  9992
2 69393  88.9983   0.8883 0003462 147.7604 212.3800 14.21842500  3240
QIANFAN-177             
1 69394U 26124N   26178.21987525  .00000113  00000+0  44051-4 0  9991
2 69394  88.9984   0.8870 0004492 125.3455 234.8157 14.22731887  3248
QIANFAN-178             
1 69395U 26124P   26178.22372083  .00000121  00000+0  47919-4 0  9995
2 69395  88.9983   0.8876 0003824 134.4451 225.7054 14.22275530  3242
QIANFAN-179             
1 69396U 26124Q   26178.21589223  .00000119  00000+0  46194-4 0  9992
2 69396  88.9983   0.8863 0003816 130.6491 229.5033 14.23098577  3246
QIANFAN-180             
1 69397U 26124R   26178.21185653  .00000120  00000+0  46466-4 0  9996
2 69397  88.9983   0.8858 0004123 140.2582 219.8913 14.23620243  3241
QIANFAN-181             
1 69398U 26124S   26178.21410287  .00000102  00000+0  43887-4 0  9995
2 69398  88.9983   0.9048 0002954 105.8445 254.3070 14.16650476  3239
QIANFAN-182             
1 69399U 26124T   26178.26079384  .00000117  00000+0  49357-4 0  9994
2 69399  88.9984   0.8933 0003243 125.5607 234.5885 14.18739860  3246
QIANFAN-183             
1 69401U 26125A   26178.30063342  .00000357  00000+0  17232-3 0  9993
2 69401  88.9953 279.3052 0015341 142.8011 217.4244 14.16465901  3131
QIANFAN-184             
1 69402U 26125B   26178.29234993  .00000388  00000+0  18636-3 0  9997
2 69402  88.9954 279.3042 0016230 137.1953 223.0502 14.16886005  3134
QIANFAN-185             
1 69403U 26125C   26178.29750876  .00000372  00000+0  18096-3 0  9994
2 69403  88.9955 279.3048 0017059 137.7295 222.5211 14.16090758  3130
QIANFAN-186             
1 69404U 26125D   26178.28406111  .00000391  00000+0  18598-3 0  9992
2 69404  88.9955 279.3029 0015522 138.4872 221.7499 14.17436868  3138
QIANFAN-187             
1 69405U 26125E   26178.27600799  .00000387  00000+0  18055-3 0  9993
2 69405  88.9954 279.3015 0016028 139.5775 220.6608 14.18347538  3135
QIANFAN-188             
1 69406U 26125F   26178.26594907  .00000400  00000+0  18333-3 0  9991
2 69406  88.9954 279.2999 0015995 143.0460 217.1835 14.19439830  3130
QIANFAN-189             
1 69407U 26125G   26178.27006683  .00000386  00000+0  17878-3 0  9998
2 69407  88.9954 279.3007 0015249 140.4741 219.7563 14.18758776  3135
QIANFAN-190             
1 69408U 26125H   26178.26576326  .00000384  00000+0  17638-3 0  9996
2 69408  88.9955 279.3002 0016028 142.0940 218.1382 14.19221838  3134
QIANFAN-191             
1 69409U 26125J   26178.25660590  .00000405  00000+0  18303-3 0  9997
2 69409  88.9954 279.2986 0015435 140.9256 219.3052 14.20093167  3133
QIANFAN-192             
1 69410U 26125K   26178.25194448  .00000417  00000+0  18746-3 0  9997
2 69410  88.9955 279.2981 0016297 141.3146 218.9215 14.20519198  3134
QIANFAN-193             
1 69411U 26125L   26178.31654269  .00000416  00000+0  18540-3 0  9998
2 69411  88.9954 279.2891 0016193 141.4636 218.7714 14.20961781  3146
QIANFAN-194             
1 69412U 26125M   26178.31240183  .00000420  00000+0  18574-3 0  9997
2 69412  88.9954 279.2884 0015476 144.9925 215.2286 14.21403552  3134
QIANFAN-195             
1 69413U 26125N   26178.30853833  .00000421  00000+0  18464-3 0  9998
2 69413  88.9954 279.2879 0016678 143.7330 216.4995 14.21800891  3149
QIANFAN-196             
1 69414U 26125P   26178.30395763  .00000411  00000+0  17847-3 0  9995
2 69414  88.9955 279.2872 0016789 144.1719 216.0603 14.22295989  3142
QIANFAN-197             
1 69415U 26125Q   26178.30041227  .00000413  00000+0  17764-3 0  9999
2 69415  88.9954 279.2866 0015070 141.2014 219.0263 14.22740441  3135
QIANFAN-198             
1 69416U 26125R   26178.30484795  .00000414  00000+0  18044-3 0  9994
2 69416  88.9954 279.2873 0015382 140.6468 219.5844 14.22067146  3141
QIANFAN-199             
1 69417U 26125S   26178.29358869  .00000421  00000+0  17836-3 0  9991
2 69417  88.9954 279.2855 0017091 141.6667 218.5744 14.23630681  3142
QIANFAN-200             
1 69418U 26125T   26178.26040701  .00000399  00000+0  18187-3 0  9996
2 69418  88.9954 279.2992 0016124 139.8362 220.4023 14.19640717  3139
